IRIDIUM 63              
1 25286U 98021B   25217.56481824  .00000307  00000+0  97888-4 0  9991
2 25286  86.3936  61.4057 0002282  90.7809 269.3650 14.36574093431203
IRIDIUM 69              
1 25319U 98026A   25217.14812401  .00000407  00000+0  12055-3 0  9999
2 25319  86.3930  74.7249 0001730 161.5282 198.5981 14.41005851430355
IRIDIUM 71              
1 25320U 98026B   25217.56519091  .00000328  00000+0  95503-4 0  9998
2 25320  86.3928  69.2296 0000557   9.3819 350.7391 14.41189871430954
IRIDIUM 73              
1 25344U 98032C   25216.72459541  .00000576  00000+0  13830-3 0  9998
2 25344  86.4407  26.1909 0002221 108.1179 252.0269 14.51758476437604
IRIDIUM 82              
1 25467U 98051A   25216.91413225  .00025760  00000+0  69110-3 0  9999
2 25467  86.3635  85.7403 0084173 110.6247 250.4057 15.34207232431424
